NORAD_CAT_ID,OBJECT_NAME,OBJECT_TYPE,EPOCH,MEAN_MOTION,ECCENTRICITY,INCLINATION,RA_OF_ASC_NODE,ARG_OF_PERICENTER,MEAN_ANOMALY,BSTAR,MEAN_MOTION_DOT,MEAN_MOTION_DDOT,TLE_LINE0,TLE_LINE1,TLE_LINE2,SEMIMAJOR_AXIS,PERIOD,APOGEE,PERIGEE,DECAYED
54177.0,STARLINK-5186,PAYLOAD,2023-10-26 16:39:49,15.08845552,0.0001605,53.2172,287.1714,87.0885,273.0291,0.00014143,1.964e-05,0.0,0 STARLINK-5186,1 54177U 22141W   23299.69432335  .00001964  00000-0  14143-3 0  9990,2 54177  53.2172 287.1714 0001605  87.0885 273.0291 15.08845552 55270,6917.863,95.437,540.839,538.618,0.0
54177.0,STARLINK-5186,PAYLOAD,2023-10-27 05:22:54,15.08852697,0.0001365,53.2156,284.7891,94.8568,265.258,0.00021436,3.126e-05,0.0,0 STARLINK-5186,1 54177U 22141W   23300.22423774  .00003126  00000-0  21436-3 0  9994,2 54177  53.2156 284.7891 0001365  94.8568 265.2580 15.08852697 55359,6917.842,95.437,540.651,538.762,0.0
54177.0,STARLINK-5186,PAYLOAD,2023-10-27 08:33:40,15.08860046,0.0001466,53.2156,284.1935,94.8906,265.2253,0.00028304,4.222e-05,0.0,0 STARLINK-5186,1 54177U 22141W   23300.35671340  .00004222  00000-0  28304-3 0  9991,2 54177  53.2156 284.1935 0001466  94.8906 265.2253 15.08860046 55376,6917.819,95.436,540.698,538.67,0.0
54177.0,STARLINK-5186,PAYLOAD,2023-10-27 16:30:36,15.08837922,0.0001792,53.2162,282.7103,79.0156,281.1038,-2.1305e-05,-6.27e-06,0.0,0 STARLINK-5186,1 54177U 22141W   23300.68792283 -.00000627  00000-0 -21305-4 0  9999,2 54177  53.2162 282.7103 0001792  79.0156 281.1038 15.08837922 55429,6917.887,95.438,540.991,538.512,0.0
54177.0,STARLINK-5186,PAYLOAD,2023-10-28 08:24:28,15.088367,0.0001619,53.2148,279.7342,93.128,266.9897,3.4829e-05,2.66e-06,0.0,0 STARLINK-5186,1 54177U 22141W   23301.35032625  .00000266  00000-0  34829-4 0  9993,2 54177  53.2148 279.7342 0001619  93.1280 266.9897 15.08836700 55525,6917.89,95.438,540.875,538.635,0.0
54177.0,STARLINK-5186,PAYLOAD,2023-10-28 22:42:56,15.08843572,0.0001611,53.2156,277.0573,93.2657,266.852,0.00020558,2.986e-05,0.0,0 STARLINK-5186,1 54177U 22141W   23301.94648556  .00002986  00000-0  20558-3 0  9998,2 54177  53.2156 277.0573 0001611  93.2657 266.8520 15.08843572 55619,6917.869,95.437,540.849,538.62,0.0
54177.0,STARLINK-5186,PAYLOAD,2023-10-29 05:04:28,15.08853326,0.0001689,53.2166,275.8673,95.1131,265.0054,0.00050152,7.706e-05,0.0,0 STARLINK-5186,1 54177U 22141W   23302.21144307  .00007706  00000-0  50152-3 0  9992,2 54177  53.2166 275.8673 0001689  95.1131 265.0054 15.08853326 55655,6917.84,95.437,540.873,538.536,0.0
54177.0,STARLINK-5186,PAYLOAD,2023-10-29 08:15:14,15.08856612,0.0001699,53.2165,275.2726,95.3458,264.7728,0.00059691,9.229e-05,0.0,0 STARLINK-5186,1 54177U 22141W   23302.34392216  .00009229  00000-0  59691-3 0  9999,2 54177  53.2165 275.2726 0001699  95.3458 264.7728 15.08856612 55679,6917.83,95.437,540.87,538.519,0.0
54177.0,STARLINK-5186,PAYLOAD,2023-10-29 22:33:43,15.08840747,0.0001317,53.2162,272.5965,90.2324,269.8819,0.00019083,2.751e-05,0.0,0 STARLINK-5186,1 54177U 22141W   23302.94008763  .00002751  00000-0  19083-3 0  9990,2 54177  53.2162 272.5965 0001317  90.2324 269.8819 15.08840747 55763,6917.878,95.438,540.654,538.832,0.0
54177.0,STARLINK-5186,PAYLOAD,2023-10-30 03:19:52,15.08844969,0.0001688,53.2172,271.704,103.4338,256.6842,0.00028265,4.214e-05,0.0,0 STARLINK-5186,1 54177U 22141W   23303.13880670  .00004214  00000-0  28265-3 0  9995,2 54177  53.2172 271.7040 0001688 103.4338 256.6842 15.08844969 55795,6917.865,95.437,540.898,538.562,0.0
54177.0,STARLINK-5186,PAYLOAD,2023-10-30 14:27:35,15.08838805,0.0001579,53.2176,269.6227,96.489,263.6282,0.00010994,1.462e-05,0.0,0 STARLINK-5186,1 54177U 22141W   23303.60248870  .00001462  00000-0  10994-3 0  9999,2 54177  53.2176 269.6227 0001579  96.4890 263.6282 15.08838805 55861,6917.884,95.438,540.841,538.657,0.0
54177.0,STARLINK-5186,PAYLOAD,2023-10-30 22:24:31,15.08835523,0.0002054,53.2182,268.1375,105.9759,254.1459,9.6306e-05,1.245e-05,0.0,0 STARLINK-5186,1 54177U 22141W   23303.93369281  .00001245  00000-0  96306-4 0  9996,2 54177  53.2182 268.1375 0002054 105.9759 254.1459 15.08835523 55916,6917.894,95.438,541.18,538.338,0.0
54177.0,STARLINK-5186,PAYLOAD,2023-10-31 14:18:22,15.08837902,0.0001618,53.2175,265.1651,97.3022,262.8155,0.00027827,4.143e-05,0.0,0 STARLINK-5186,1 54177U 22141W   23304.59609584  .00004143  00000-0  27827-3 0  9993,2 54177  53.2175 265.1651 0001618  97.3022 262.8155 15.08837902 56018,6917.887,95.438,540.871,538.632,0.0
54177.0,STARLINK-5186,PAYLOAD,2023-11-01 14:09:09,15.08846444,0.0001351,53.2164,260.7041,90.4261,269.6886,0.00033425,5.037e-05,0.0,0 STARLINK-5186,1 54177U 22141W   23305.58969356  .00005037  00000-0  33425-3 0  9993,2 54177  53.2164 260.7041 0001351  90.4261 269.6886 15.08846444 56166,6917.861,95.437,540.66,538.791,0.0
54177.0,STARLINK-5186,PAYLOAD,2023-11-02 04:27:37,15.08845724,0.0001636,53.2176,258.0264,82.2789,277.8389,0.00025477,3.77e-05,0.0,0 STARLINK-5186,1 54177U 22141W   23306.18585406  .00003770  00000-0  25477-3 0  9990,2 54177  53.2176 258.0264 0001636  82.2789 277.8389 15.08845724 56255,6917.863,95.437,540.86,538.596,0.0
54177.0,STARLINK-5186,PAYLOAD,2023-11-02 13:59:56,15.08846432,0.0001486,53.2172,256.2449,98.3658,261.7503,0.00018549,2.666e-05,0.0,0 STARLINK-5186,1 54177U 22141W   23306.58329238  .00002666  00000-0  18549-3 0  9998,2 54177  53.2172 256.2449 0001486  98.3658 261.7503 15.08846432 56316,6917.861,95.437,540.754,538.698,0.0
54177.0,STARLINK-5186,PAYLOAD,2023-11-02 20:21:29,15.08844386,0.0001677,53.2167,255.0564,96.461,263.6573,0.00012451,1.694e-05,0.0,0 STARLINK-5186,1 54177U 22141W   23306.84825350  .00001694  00000-0  12451-3 0  9999,2 54177  53.2167 255.0564 0001677  96.4610 263.6573 15.08844386 56352,6917.867,95.437,540.892,538.572,0.0
54177.0,STARLINK-5186,PAYLOAD,2023-11-03 05:53:47,15.08857253,0.0001453,53.2168,253.2689,101.8828,258.2327,0.00027372,4.073e-05,0.0,0 STARLINK-5186,1 54177U 22141W   23307.24568624  .00004073  00000-0  27372-3 0  9994,2 54177  53.2168 253.2689 0001453 101.8828 258.2327 15.08857253 56416,6917.828,95.436,540.698,538.687,0.0
54177.0,STARLINK-5186,PAYLOAD,2023-11-03 13:50:43,15.08837515,0.0001996,53.2175,251.7851,85.2139,274.9081,-2.8924e-05,-7.48e-06,0.0,0 STARLINK-5186,1 54177U 22141W   23307.57689687 -.00000748  00000-0 -28924-4 0  9995,2 54177  53.2175 251.7851 0001996  85.2139 274.9081 15.08837515 56466,6917.888,95.438,541.134,538.372,0.0
54177.0,STARLINK-5186,PAYLOAD,2023-11-03 20:12:16,15.08836907,0.0001869,53.2171,250.5946,86.5805,273.5401,3.3872e-06,-2.34e-06,0.0,0 STARLINK-5186,1 54177U 22141W   23307.84185717 -.00000234  00000-0  33872-5 0  9998,2 54177  53.2171 250.5946 0001869  86.5805 273.5401 15.08836907 56507,6917.89,95.438,541.048,538.462,0.0
54177.0,STARLINK-5186,PAYLOAD,2023-11-04 05:44:34,15.088481,0.0001705,53.2176,248.8087,101.6493,258.469,0.00023551,3.463e-05,0.0,0 STARLINK-5186,1 54177U 22141W   23308.23929212  .00003463  00000-0  23551-3 0  9995,2 54177  53.2176 248.8087 0001705 101.6493 258.4690 15.08848100 56565,6917.856,95.437,540.9,538.541,0.0
54177.0,STARLINK-5186,PAYLOAD,2023-11-04 13:41:31,15.0883458,0.0001768,53.2158,247.3256,82.4756,277.6437,2.4399e-05,1e-06,0.0,0 STARLINK-5186,1 54177U 22141W   23308.57049974  .00000100  00000-0  24399-4 0  9997,2 54177  53.2158 247.3256 0001768  82.4756 277.6437 15.08834580 56619,6917.897,95.438,540.985,538.539,0.0
54177.0,STARLINK-5186,PAYLOAD,2023-11-05 02:24:36,15.08840662,0.0001211,53.2166,244.9443,92.5282,267.5849,0.00019597,2.832e-05,0.0,0 STARLINK-5186,1 54177U 22141W   23309.10041753  .00002832  00000-0  19597-3 0  9991,2 54177  53.2166 244.9443 0001211  92.5282 267.5849 15.08840662 56699,6917.878,95.438,540.581,538.906,0.0
54177.0,STARLINK-5186,PAYLOAD,2023-11-06 02:15:21,15.08916257,0.000155,53.2157,240.4825,99.9555,260.1612,0.0022,0.00034972,0.0,0 STARLINK-5186,1 54177U 22141W   23310.09399610  .00034972  00000-0  22000-2 0  9991,2 54177  53.2157 240.4825 0001550  99.9555 260.1612 15.08916257 56842,6917.647,95.433,540.585,538.44,0.0
54177.0,STARLINK-5186,PAYLOAD,2023-11-07 02:06:07,15.0880052,0.0001178,53.2168,236.0225,84.4203,275.6923,-0.0019859,-0.0003172,0.0,0 STARLINK-5186,1 54177U 22141W   23311.08759058 -.00031720  00000-0 -19859-2 0  9995,2 54177  53.2168 236.0225 0001178  84.4203 275.6923 15.08800520 56991,6918.001,95.44,540.681,539.051,0.0
54177.0,STARLINK-5186,PAYLOAD,2023-11-07 11:38:28,15.08803694,0.0001362,53.2176,234.2397,89.291,270.8238,-0.00038888,-6.465e-05,0.0,0 STARLINK-5186,1 54177U 22141W   23311.48505028 -.00006465  00000-0 -38888-3 0  9997,2 54177  53.2176 234.2397 0001362  89.2910 270.8238 15.08803694 57052,6917.991,95.44,540.799,538.914,0.0
54177.0,STARLINK-5186,PAYLOAD,2023-11-08 01:56:57,15.08831027,0.000136,53.2169,231.5644,99.3602,260.7544,0.0019572,0.0003099,0.0,0 STARLINK-5186,1 54177U 22141W   23312.08122223  .00030990  00000-0  19572-2 0  9992,2 54177  53.2169 231.5644 0001360  99.3602 260.7544 15.08831027 57146,6917.908,95.438,540.714,538.832,0.0
54177.0,STARLINK-5186,PAYLOAD,2023-11-08 22:36:58,15.08853463,0.0001498,53.2171,227.7007,111.1318,248.9835,0.00095511,0.00014951,0.0,0 STARLINK-5186,1 54177U 22141W   23312.94234095  .00014951  00000-0  95511-3 0  9995,2 54177  53.2171 227.7007 0001498 111.1318 248.9835 15.08853463 57271,6917.839,95.437,540.741,538.668,0.0
54177.0,STARLINK-5186,PAYLOAD,2023-11-09 01:47:44,15.08862224,0.0001366,53.2164,227.105,101.2731,258.8415,0.0012533,0.00019727,0.0,0 STARLINK-5186,1 54177U 22141W   23313.07481944  .00019727  00000-0  12533-2 0  9995,2 54177  53.2164 227.1050 0001366 101.2731 258.8415 15.08862224 57299,6917.812,95.436,540.622,538.732,0.0
54177.0,STARLINK-5186,PAYLOAD,2023-11-09 22:27:45,15.08849278,0.0001477,53.2167,223.2493,120.5956,239.5182,0.0010651,0.00016708,0.0,0 STARLINK-5186,1 54177U 22141W   23313.93594164  .00016708  00000-0  10651-2 0  9994,2 54177  53.2167 223.2493 0001477 120.5956 239.5182 15.08849278 57422,6917.852,95.437,540.739,538.695,0.0
